GSAT0101 (PRN E11)      
1 37846U 11060A   22297.88741889 -.00000077  00000+0  00000+0 0  9994
2 37846  57.0382  17.8242 0000474   8.2134 351.8316  1.70474872 68429
GSAT0102 (PRN E12)      
1 37847U 11060B   22298.39381284 -.00000077  00000+0  00000+0 0  9991
2 37847  57.0393  17.8101 0002308 298.6312  59.0284  1.70475253 68433
GSAT0103 (PRN E19)      
1 38857U 12055A   22297.92656432  .00000092  00000+0  00000+0 0  9992
2 38857  55.1735 138.1383 0001840 237.4399 122.6401  1.70473728 62313
GSAT0104 (PRN E20)      
1 38858U 12055B   22297.89647084  .00000092  00000+0  00000+0 0  9992
2 38858  55.1736 138.1406 0001375 135.9887 224.1203  1.70474008 62318
GSAT0201 (PRN E18)      
1 40128U 14050A   22299.18603892 -.00000056  00000+0  00000+0 0  9996
2 40128  50.1931 327.0719 1618217 128.7971 246.8286  1.85519291 53641
GSAT0202 (PRN E14)      
1 40129U 14050B   22296.75160221 -.00000052  00000+0  00000+0 0  9997
2 40129  50.2180 326.2331 1615624 129.5202 245.9377  1.85520004 55765
GSAT0203 (PRN E26)      
1 40544U 15017A   22297.66717320 -.00000078  00000+0  00000+0 0  9999
2 40544  56.8338  17.8458 0004235 235.4627 124.5407  1.70476292 46504
GSAT0204 (PRN E22)      
1 40545U 15017B   22299.09338318 -.00000076  00000+0  00000+0 0  9993
2 40545  56.8398  17.8197 0004336 222.1264 137.8878  1.70475634  9577
GSAT0205 (PRN E24)      
1 40889U 15045A   22298.86077127  .00000000  00000+0  00000+0 0  9993
2 40889  55.5430 258.3604 0004849 358.3111   1.6521  1.70472887 44331
GSAT0206 (PRN E30)      
1 40890U 15045B   22299.08152572  .00000001  00000+0  00000+0 0  9999
2 40890  55.5443 258.3500 0003444 338.5751  21.3759  1.70472901 44364
GSAT0209 (PRN E09)      
1 41174U 15079A   22296.90917529  .00000091  00000+0  00000+0 0  9990
2 41174  55.1901 137.8708 0002101 343.5981  16.4958  1.70474285 42648
GSAT0208 (PRN E08)      
1 41175U 15079B   22299.47497979  .00000089  00000+0  00000+0 0  9995
2 41175  55.1890 137.7986 0001546 358.0132   2.0739  1.70474184 42527
GSAT0211 (PRN E02)      
1 41549U 16030A   22299.00717920  .00000001  00000+0  00000+0 0  9992
2 41549  55.6900 258.2991 0004750 318.7269  41.2023  1.70474433 39993
GSAT0210 (PRN E01)      
1 41550U 16030B   22298.12659631  .00000000  00000+0  00000+0 0  9999
2 41550  55.6900 258.3246 0004291 292.0519  67.8663  1.70474461 39974
GSAT0207 (PRN E07)      
1 41859U 16069A   22298.96288103  .00000090  00000+0  00000+0 0  9996
2 41859  54.8516 137.9633 0001773 313.4403  46.6367  1.70472921 36729
GSAT0212 (PRN E03)      
1 41860U 16069B   22298.22971412  .00000091  00000+0  00000+0 0  9990
2 41860  54.8488 137.9810 0001775  24.5887 335.5159  1.70472917 36964
GSAT0213 (PRN E04)      
1 41861U 16069C   22299.18156063  .00000089  00000+0  00000+0 0  9991
2 41861  54.8515 137.9600 0001615 253.4014 106.6710  1.70473072 36975
GSAT0214 (PRN E05)      
1 41862U 16069D   22299.91531042  .00000086  00000+0  00000+0 0  9994
2 41862  54.8504 137.9340 0000691 246.8693 113.2079  1.70472970 36986
GSAT0215 (PRN E21)      
1 43055U 17079A   22299.23182165  .00000001  00000+0  00000+0 0  9992
2 43055  55.6659 258.1232 0003695 287.9926  71.9331  1.70473675 30315
GSAT0216 (PRN E25)      
1 43056U 17079B   22298.93736628  .00000001  00000+0  00000+0 0  9998
2 43056  55.6664 258.1311 0005371 286.9829  72.9233  1.70473781 30325
GSAT0217 (PRN E27)      
1 43057U 17079C   22298.57105315  .00000000  00000+0  00000+0 0  9991
2 43057  55.6647 258.1408 0005009 297.9698  61.9438  1.70473784 30304
GSAT0218 (PRN E31)      
1 43058U 17079D   22295.27158264  .00000002  00000+0  00000+0 0  9999
2 43058  55.6668 258.2290 0005841 281.8080  78.0955  1.70473926 30243
GSAT0221 (PRN E15)      
1 43564U 18060A   22299.27652676 -.00000076  00000+0  00000+0 0  9994
2 43564  57.2159  17.6507 0004175 255.6275 104.3747  1.70476080 26498
GSAT0222 (PRN E33)      
1 43565U 18060B   22297.73664059 -.00000077  00000+0  00000+0 0  9993
2 43565  57.2174  17.6930 0003679 261.4146  98.5879  1.70476115 26518
GSAT0219 (PRN E36)      
1 43566U 18060C   22297.95718247 -.00000077  00000+0  00000+0 0  9997
2 43566  57.2180  17.6891 0003223 259.1910 100.8176  1.70476117 26496
GSAT0220 (PRN E13)      
1 43567U 18060D   22297.00421820 -.00000078  00000+0  00000+0 0  9993
2 43567  57.2174  17.7158 0003585 255.4477 104.5544  1.70475955 26461
GSAT0223                
1 49809U 21116A   22299.21043278 -.00000076  00000+0  00000+0 0  9994
2 49809  57.2104  17.5537 0003536 201.0257 163.0727  1.70476032  5510
GSAT0224                
1 49810U 21116B   22299.61188821 -.00000076  00000+0  00000+0 0  9994
2 49810  57.2111  17.5409 0003000 201.8255 161.1267  1.70475988  5540
